[{"OBJECT_NAME":"SITRO-AIS 6 (CHIRKIN)","OBJECT_ID":"2023-091AC","EPOCH":"2026-03-09T23:26:09.745152","MEAN_MOTION":15.244139,"ECCENTRICITY":0.00142211,"INCLINATION":97.5181,"RA_OF_ASC_NODE":131.6463,"ARG_OF_PERICENTER":95.0602,"MEAN_ANOMALY":265.2259,"EPHEMERIS_TYPE":0,"CLASSIFICATION_TYPE":"U","NORAD_CAT_ID":57192,"ELEMENT_SET_NO":999,"REV_AT_EPOCH":14916,"BSTAR":0.00035317072,"MEAN_MOTION_DOT":8.613e-5,"MEAN_MOTION_DDOT":0},{"OBJECT_NAME":"STARLINK-31769","OBJECT_ID":"2024-080S","EPOCH":"2026-03-09T22:01:33.301920","MEAN_MOTION":15.27558866,"ECCENTRICITY":0.00014814,"INCLINATION":43.003,"RA_OF_ASC_NODE":36.9508,"ARG_OF_PERICENTER":250.4361,"MEAN_ANOMALY":109.6331,"EPHEMERIS_TYPE":0,"CLASSIFICATION_TYPE":"U","NORAD_CAT_ID":59617,"ELEMENT_SET_NO":999,"REV_AT_EPOCH":10456,"BSTAR":-6.6305038e-5,"MEAN_MOTION_DOT":-2.085e-5,"MEAN_MOTION_DDOT":0}]
